start=new Date('2022-11-14T00:00:00.000Z').valueOf();
sats=[{"COUNTRY_CODE":"US","REF_FRAME":"TEME","FILE":"3653957","EPOCH":"2022-11-13T12:53:00.674304","OBJECT_NAME":"STARLINK-1631","RCS_SIZE":"LARGE","MEAN_ANOMALY":"301.8950","OBJECT_TYPE":"PAYLOAD","TLE_LINE1":"1 46151U 20057AL  22317.53681336 -.00003130  00000-0 -19133-3 0  9990","RA_OF_ASC_NODE":"338.1753","GP_ID":"217688789","REV_AT_EPOCH":"12364","ARG_OF_PERICENTER":"58.2181","CENTER_NAME":"EARTH","APOAPSIS":"548.228","ELEMENT_SET_NO":"999","EPHEMERIS_TYPE":"0","ECCENTRICITY":"0.00014540","INCLINATION":"53.0551","SEMIMAJOR_AXIS":"6925.356","LAUNCH_DATE":"2020-08-18","MEAN_MOTION_DOT":"-0.00003130","MEAN_MOTION_DDOT":"0.0000000000000","PERIAPSIS":"546.214","PERIOD":"95.592","DECAY_DATE":null,"MEAN_ELEMENT_THEORY":"SGP4","NORAD_CAT_ID":"46151","TIME_SYSTEM":"UTC","TLE_LINE2":"2 46151  53.0551 338.1753 0001454  58.2181 301.8950 15.06397589123642","BSTAR":"-0.00019133000000","CLASSIFICATION_TYPE":"U","SITE":"AFETR","MEAN_MOTION":"15.06397589","OBJECT_ID":"2020-057AL"},{"MEAN_ELEMENT_THEORY":"SGP4","TIME_SYSTEM":"UTC","NORAD_CAT_ID":"46152","TLE_LINE2":"2 46152  53.0556 357.9676 0001416  52.5693 307.5425 15.06391041123371","BSTAR":"-0.00017422000000","DECAY_DATE":null,"SITE":"AFETR","MEAN_MOTION":"15.06391041","OBJECT_ID":"2020-057AM","CLASSIFICATION_TYPE":"U","ECCENTRICITY":"0.00014160","INCLINATION":"53.0556","SEMIMAJOR_AXIS":"6925.376","LAUNCH_DATE":"2020-08-18","EPHEMERIS_TYPE":"0","PERIOD":"95.593","MEAN_MOTION_DOT":"-0.00002875","MEAN_MOTION_DDOT":"0.0000000000000","PERIAPSIS":"546.260","ARG_OF_PERICENTER":"52.5693","TLE_LINE1":"1 46152U 20057AM  22317.58657534 -.00002875  00000-0 -17422-3 0  9993","RA_OF_ASC_NODE":"357.9676","GP_ID":"217689538","REV_AT_EPOCH":"12337","ELEMENT_SET_NO":"999","CENTER_NAME":"EARTH","APOAPSIS":"548.222","COUNTRY_CODE":"US","REF_FRAME":"TEME","FILE":"3653957","RCS_SIZE":"LARGE","OBJECT_TYPE":"PAYLOAD","MEAN_ANOMALY":"307.5425","EPOCH":"2022-11-13T14:04:40.109376","OBJECT_NAME":"STARLINK-1634"},{"ELEMENT_SET_NO":"999","APOAPSIS":"548.431","CENTER_NAME":"EARTH","ARG_OF_PERICENTER":"49.0773","REV_AT_EPOCH":"12367","RA_OF_ASC_NODE":"337.2059","GP_ID":"217690289","TLE_LINE1":"1 46153U 20057AN  22317.75428514 -.00005373  00000-0 -34224-3 0  9992","OBJECT_TYPE":"PAYLOAD","MEAN_ANOMALY":"311.0362","RCS_SIZE":"LARGE","OBJECT_NAME":"STARLINK-1636","EPOCH":"2022-11-13T18:06:10.236096","FILE":"3653957","REF_FRAME":"TEME","COUNTRY_CODE":"US","OBJECT_ID":"2020-057AN","MEAN_MOTION":"15.06383941","SITE":"AFETR","CLASSIFICATION_TYPE":"U","BSTAR":"-0.00034224000000","TLE_LINE2":"2 46153  53.0546 337.2059 0001687  49.0773 311.0362 15.06383941123670","NORAD_CAT_ID":"46153","TIME_SYSTEM":"UTC","MEAN_ELEMENT_THEORY":"SGP4","DECAY_DATE":null,"PERIOD":"95.593","PERIAPSIS":"546.094","MEAN_MOTION_DDOT":"0.0000000000000","MEAN_MOTION_DOT":"-0.00005373","SEMIMAJOR_AXIS":"6925.398","LAUNCH_DATE":"2020-08-18","ECCENTRICITY":"0.00016870","INCLINATION":"53.0546","EPHEMERIS_TYPE":"0"},{"CLASSIFICATION_TYPE":"U","OBJECT_ID":"2020-057AP","MEAN_MOTION":"15.06401191","SITE":"AFETR","DECAY_DATE":null,"BSTAR":"0.00002736300000","TLE_LINE2":"2 46154  53.0551 348.3566 0001520  65.4051 294.7096 15.06401191123501","TIME_SYSTEM":"UTC","NORAD_CAT_ID":"46154","MEAN_ELEMENT_THEORY":"SGP4","PERIAPSIS":"546.157","MEAN_MOTION_DDOT":"0.0000000000000","MEAN_MOTION_DOT":"0.00000126","PERIOD":"95.592","EPHEMERIS_TYPE":"0","LAUNCH_DATE":"2020-08-18","SEMIMAJOR_AXIS":"6925.345","INCLINATION":"53.0551","ECCENTRICITY":"0.00015200","APOAPSIS":"548.263","CENTER_NAME":"EARTH","ELEMENT_SET_NO":"999","REV_AT_EPOCH":"12350","RA_OF_ASC_NODE":"348.3566","GP_ID":"217690541","TLE_LINE1":"1 46154U 20057AP  22317.49902822  .00000126  00000-0  27363-4 0  9999","ARG_OF_PERICENTER":"65.4051","OBJECT_NAME":"STARLINK-1642","EPOCH":"2022-11-13T11:58:36.038208","MEAN_ANOMALY":"294.7096","OBJECT_TYPE":"PAYLOAD","RCS_SIZE":"LARGE","FILE":"3653957","REF_FRAME":"TEME","COUNTRY_CODE":"US"},{"MEAN_ANOMALY":"304.9452","OBJECT_TYPE":"PAYLOAD","RCS_SIZE":"LARGE","OBJECT_NAME":"STARLINK-1667","EPOCH":"2022-11-13T17:21:03.768192","FILE":"3653957","REF_FRAME":"TEME","COUNTRY_CODE":"US","ELEMENT_SET_NO":"999","APOAPSIS":"548.526","CENTER_NAME":"EARTH","ARG_OF_PERICENTER":"55.1713","REV_AT_EPOCH":"12519","RA_OF_ASC_NODE":"317.3573","GP_ID":"217689289","TLE_LINE1":"1 46155U 20057AQ  22317.72296028 -.00002541  00000-0 -15173-3 0  9990","PERIOD":"95.592","PERIAPSIS":"545.928","MEAN_MOTION_DDOT":"0.0000000000000","MEAN_MOTION_DOT":"-0.00002541","SEMIMAJOR_AXIS":"6925.362","LAUNCH_DATE":"2020-08-18","ECCENTRICITY":"0.00018760","INCLINATION":"53.0550","EPHEMERIS_TYPE":"0","OBJECT_ID":"2020-057AQ","MEAN_MOTION":"15.06395590","SITE":"AFETR","CLASSIFICATION_TYPE":"U","BSTAR":"-0.00015173000000","TLE_LINE2":"2 46155  53.0550 317.3573 0001876  55.1713 304.9452 15.06395590125192","NORAD_CAT_ID":"46155","TIME_SYSTEM":"UTC","MEAN_ELEMENT_THEORY":"SGP4","DECAY_DATE":null},{"MEAN_MOTION":"15.06400763","SITE":"AFETR","OBJECT_ID":"2020-057AR","CLASSIFICATION_TYPE":"U","TIME_SYSTEM":"UTC","NORAD_CAT_ID":"46156","MEAN_ELEMENT_THEORY":"SGP4","BSTAR":"-0.00002813400000","TLE_LINE2":"2 46156  53.0534 337.1068 0001929  54.5823 305.5346 15.06400763124937","DECAY_DATE":null,"PERIOD":"95.592","MEAN_MOTION_DOT":"-0.00000701","PERIAPSIS":"545.875","MEAN_MOTION_DDOT":"0.0000000000000","INCLINATION":"53.0534","ECCENTRICITY":"0.00019290","SEMIMAJOR_AXIS":"6925.346","LAUNCH_DATE":"2020-08-18","EPHEMERIS_TYPE":"0","ELEMENT_SET_NO":"999","APOAPSIS":"548.547","CENTER_NAME":"EARTH","ARG_OF_PERICENTER":"54.5823","RA_OF_ASC_NODE":"337.1068","GP_ID":"217689039","TLE_LINE1":"1 46156U 20057AR  22317.78009683 -.00000701  00000-0 -28134-4 0  9994","REV_AT_EPOCH":"12493","MEAN_ANOMALY":"305.5346","OBJECT_TYPE":"PAYLOAD","RCS_SIZE":"LARGE","OBJECT_NAME":"STARLINK-1545","EPOCH":"2022-11-13T18:43:20.366112","COUNTRY_CODE":"US","FILE":"3653957","REF_FRAME":"TEME"},{"DECAY_DATE":null,"TLE_LINE2":"2 46157  53.0536 317.4616 0002468  35.7406 324.3747 15.06388517123954","BSTAR":"-0.00013472000000","MEAN_ELEMENT_THEORY":"SGP4","NORAD_CAT_ID":"46157","TIME_SYSTEM":"UTC","CLASSIFICATION_TYPE":"U","OBJECT_ID":"2020-057AS","SITE":"AFETR","MEAN_MOTION":"15.06388517","EPHEMERIS_TYPE":"0","LAUNCH_DATE":"2020-08-18","SEMIMAJOR_AXIS":"6925.384","INCLINATION":"53.0536","ECCENTRICITY":"0.00024680","MEAN_MOTION_DDOT":"0.0000000000000","PERIAPSIS":"545.540","MEAN_MOTION_DOT":"-0.00002287","PERIOD":"95.593","REV_AT_EPOCH":"12395","TLE_LINE1":"1 46157U 20057AS  22317.70083736 -.00002287  00000-0 -13472-3 0  9997","GP_ID":"217689790","RA_OF_ASC_NODE":"317.4616","ARG_OF_PERICENTER":"35.7406","CENTER_NAME":"EARTH","APOAPSIS":"548.958","ELEMENT_SET_NO":"999","REF_FRAME":"TEME","FILE":"3653957","COUNTRY_CODE":"US","EPOCH":"2022-11-13T16:49:12.347904","OBJECT_NAME":"STARLINK-1587","RCS_SIZE":"LARGE","OBJECT_TYPE":"PAYLOAD","MEAN_ANOMALY":"324.3747"},{"MEAN_ANOMALY":"311.8877","OBJECT_TYPE":"PAYLOAD","RCS_SIZE":"LARGE","OBJECT_NAME":"STARLINK-1589","EPOCH":"2022-11-13T16:43:53.747040","FILE":"3653957","REF_FRAME":"TEME","COUNTRY_CODE":"US","ELEMENT_SET_NO":"999","APOAPSIS":"548.521","CENTER_NAME":"EARTH","ARG_OF_PERICENTER":"48.2271","REV_AT_EPOCH":"12521","GP_ID":"217690042","RA_OF_ASC_NODE":"317.4699","TLE_LINE1":"1 46158U 20057AT  22317.69714985  .00000355  00000-0  42713-4 0  9996","PERIOD":"95.592","PERIAPSIS":"545.940","MEAN_MOTION_DDOT":"0.0000000000000","MEAN_MOTION_DOT":"0.00000355","SEMIMAJOR_AXIS":"6925.365","LAUNCH_DATE":"2020-08-18","ECCENTRICITY":"0.00018630","INCLINATION":"53.0550","EPHEMERIS_TYPE":"0","OBJECT_ID":"2020-057AT","MEAN_MOTION":"15.06394497","SITE":"AFETR","CLASSIFICATION_TYPE":"U","BSTAR":"0.00004271300000","TLE_LINE2":"2 46158  53.0550 317.4699 0001863  48.2271 311.8877 15.06394497125219","NORAD_CAT_ID":"46158","TIME_SYSTEM":"UTC","MEAN_ELEMENT_THEORY":"SGP4","DECAY_DATE":null},{"MEAN_MOTION_DDOT":"0.0000000000000","PERIAPSIS":"546.035","MEAN_MOTION_DOT":"-0.00000195","PERIOD":"95.592","EPHEMERIS_TYPE":"0","SEMIMAJOR_AXIS":"6925.343","LAUNCH_DATE":"2020-08-18","ECCENTRICITY":"0.00016940","INCLINATION":"53.0541","CLASSIFICATION_TYPE":"U","OBJECT_ID":"2020-057AU","SITE":"AFETR","MEAN_MOTION":"15.06401785","DECAY_DATE":null,"TLE_LINE2":"2 46159  53.0541 358.1898 0001694  52.5084 307.6059 15.06401785124027","BSTAR":"0.00000582060000","MEAN_ELEMENT_THEORY":"SGP4","TIME_SYSTEM":"UTC","NORAD_CAT_ID":"46159","EPOCH":"2022-11-13T12:55:39.433440","OBJECT_NAME":"STARLINK-1595","RCS_SIZE":"LARGE","MEAN_ANOMALY":"307.6059","OBJECT_TYPE":"PAYLOAD","REF_FRAME":"TEME","FILE":"3653293","COUNTRY_CODE":"US","CENTER_NAME":"EARTH","APOAPSIS":"548.381","ELEMENT_SET_NO":"999","REV_AT_EPOCH":"12402","TLE_LINE1":"1 46159U 20057AU  22317.53865085 -.00000195  00000-0  58206-5 0  9996","RA_OF_ASC_NODE":"358.1898","GP_ID":"217655624","ARG_OF_PERICENTER":"52.5084"},{"REF_FRAME":"TEME","FILE":"3653957","COUNTRY_CODE":"US","EPOCH":"2022-11-13T19:04:34.021344","OBJECT_NAME":"STARLINK-1598","RCS_SIZE":"LARGE","MEAN_ANOMALY":"315.4087","OBJECT_TYPE":"PAYLOAD","REV_AT_EPOCH":"12493","TLE_LINE1":"1 46160U 20057AV  22317.79483821 -.00001354  00000-0 -71996-4 0  9999","RA_OF_ASC_NODE":"337.0283","GP_ID":"217689539","ARG_OF_PERICENTER":"44.7070","CENTER_NAME":"EARTH","APOAPSIS":"548.687","ELEMENT_SET_NO":"999","EPHEMERIS_TYPE":"0","LAUNCH_DATE":"2020-08-18","SEMIMAJOR_AXIS":"6925.376","ECCENTRICITY":"0.00020880","INCLINATION":"53.0555","MEAN_MOTION_DDOT":"0.0000000000000","PERIAPSIS":"545.795","MEAN_MOTION_DOT":"-0.00001354","PERIOD":"95.593","DECAY_DATE":null,"TLE_LINE2":"2 46160  53.0555 337.0283 0002088  44.7070 315.4087 15.06390937124938","BSTAR":"-0.00007199600000","MEAN_ELEMENT_THEORY":"SGP4","NORAD_CAT_ID":"46160","TIME_SYSTEM":"UTC","CLASSIFICATION_TYPE":"U","OBJECT_ID":"2020-057AV","SITE":"AFETR","MEAN_MOTION":"15.06390937"}];
